STARLINK-31042          
1 58739U 24005M   26068.74334738  .00002028  00000+0  85255-4 0  9994
2 58739  43.0003 219.2871 0000723 275.9861  84.0908 15.26742080120450
FLOCK 4G-3              
1 62639U 25009AG  26068.80174065  .00011494  00000+0  43389-3 0  9993
2 62639  97.4062 151.4068 0001320 293.2042  66.9058 15.27179310 63727
